start=new Date('2022-07-25T00:00:00.000Z').valueOf();
sats=[{"ARG_OF_PERICENTER":"67.0953","DECAY_DATE":null,"MEAN_ANOMALY":"293.0201","MEAN_MOTION_DOT":"0.00001665","REF_FRAME":"TEME","RCS_SIZE":"LARGE","CLASSIFICATION_TYPE":"U","ELEMENT_SET_NO":"999","OBJECT_ID":"2021-009AZ","EPHEMERIS_TYPE":"0","RA_OF_ASC_NODE":"224.4372","ECCENTRICITY":"0.00015580","NORAD_CAT_ID":"47595","APOAPSIS":"548.314","COUNTRY_CODE":"US","OBJECT_NAME":"STARLINK-2000","FILE":"3521124","MEAN_MOTION_DDOT":"0.0000000000000","TIME_SYSTEM":"UTC","SITE":"AFETR","REV_AT_EPOCH":"8098","MEAN_ELEMENT_THEORY":"SGP4","CENTER_NAME":"EARTH","OBJECT_TYPE":"PAYLOAD","GP_ID":"208799081","SEMIMAJOR_AXIS":"6925.370","TLE_LINE1":"1 47595U 21009AZ  22205.87818800  .00001665  00000-0  13066-3 0  9990","EPOCH":"2022-07-24T21:04:35.443200","LAUNCH_DATE":"2021-02-04","BSTAR":"0.00013066000000","PERIOD":"95.593","TLE_LINE2":"2 47595  53.0526 224.4372 0001558  67.0953 293.0201 15.06392959 80987","INCLINATION":"53.0526","MEAN_MOTION":"15.06392959","PERIAPSIS":"546.156"},{"RA_OF_ASC_NODE":"225.0196","EPHEMERIS_TYPE":"0","OBJECT_ID":"2021-009BA","ELEMENT_SET_NO":"999","CLASSIFICATION_TYPE":"U","RCS_SIZE":"LARGE","REF_FRAME":"TEME","MEAN_MOTION_DOT":"-0.00000293","MEAN_ANOMALY":"293.8871","DECAY_DATE":null,"ARG_OF_PERICENTER":"66.2297","OBJECT_NAME":"STARLINK-2001","COUNTRY_CODE":"US","APOAPSIS":"548.421","NORAD_CAT_ID":"47596","ECCENTRICITY":"0.00017060","CENTER_NAME":"EARTH","OBJECT_TYPE":"PAYLOAD","MEAN_ELEMENT_THEORY":"SGP4","REV_AT_EPOCH":"8096","SITE":"AFETR","TIME_SYSTEM":"UTC","MEAN_MOTION_DDOT":"0.0000000000000","FILE":"3521124","PERIAPSIS":"546.058","INCLINATION":"53.0536","MEAN_MOTION":"15.06391668","TLE_LINE2":"2 47596  53.0536 225.0196 0001706  66.2297 293.8871 15.06391668 80962","PERIOD":"95.593","BSTAR":"-0.00000074664000","LAUNCH_DATE":"2021-02-04","EPOCH":"2022-07-24T17:58:50.763360","SEMIMAJOR_AXIS":"6925.374","TLE_LINE1":"1 47596U 21009BA  22205.74919865 -.00000293  00000-0 -74664-6 0  9992","GP_ID":"208798825"},{"GP_ID":"208798080","TLE_LINE1":"1 47597U 21009BB  22205.87452695  .00003000  00000-0  22022-3 0  9995","SEMIMAJOR_AXIS":"6925.343","EPOCH":"2022-07-24T20:59:19.128480","BSTAR":"0.00022022000000","LAUNCH_DATE":"2021-02-04","TLE_LINE2":"2 47597  53.0526 224.4599 0001515  55.9968 304.1165 15.06401808 80982","PERIOD":"95.592","MEAN_MOTION":"15.06401808","INCLINATION":"53.0526","PERIAPSIS":"546.159","FILE":"3521124","MEAN_MOTION_DDOT":"0.0000000000000","TIME_SYSTEM":"UTC","SITE":"AFETR","REV_AT_EPOCH":"8098","MEAN_ELEMENT_THEORY":"SGP4","CENTER_NAME":"EARTH","OBJECT_TYPE":"PAYLOAD","NORAD_CAT_ID":"47597","ECCENTRICITY":"0.00015150","APOAPSIS":"548.257","COUNTRY_CODE":"US","OBJECT_NAME":"STARLINK-2002","ARG_OF_PERICENTER":"55.9968","DECAY_DATE":null,"MEAN_MOTION_DOT":"0.00003000","MEAN_ANOMALY":"304.1165","RCS_SIZE":"LARGE","REF_FRAME":"TEME","ELEMENT_SET_NO":"999","CLASSIFICATION_TYPE":"U","OBJECT_ID":"2021-009BB","EPHEMERIS_TYPE":"0","RA_OF_ASC_NODE":"224.4599"},{"ECCENTRICITY":"0.00016650","NORAD_CAT_ID":"47598","APOAPSIS":"548.361","COUNTRY_CODE":"US","OBJECT_NAME":"STARLINK-2003","ARG_OF_PERICENTER":"56.5119","DECAY_DATE":null,"MEAN_ANOMALY":"303.6029","MEAN_MOTION_DOT":"0.00001447","REF_FRAME":"TEME","RCS_SIZE":"LARGE","CLASSIFICATION_TYPE":"U","ELEMENT_SET_NO":"999","OBJECT_ID":"2021-009BC","EPHEMERIS_TYPE":"0","RA_OF_ASC_NODE":"195.3109","GP_ID":"208798330","TLE_LINE1":"1 47598U 21009BC  22205.68559996  .00001447  00000-0  11603-3 0  9993","SEMIMAJOR_AXIS":"6925.343","EPOCH":"2022-07-24T16:27:15.836544","LAUNCH_DATE":"2021-02-04","BSTAR":"0.00011603000000","PERIOD":"95.592","TLE_LINE2":"2 47598  53.0536 195.3109 0001665  56.5119 303.6029 15.06401810 81389","INCLINATION":"53.0536","MEAN_MOTION":"15.06401810","PERIAPSIS":"546.055","FILE":"3521124","MEAN_MOTION_DDOT":"0.0000000000000","TIME_SYSTEM":"UTC","SITE":"AFETR","REV_AT_EPOCH":"8138","MEAN_ELEMENT_THEORY":"SGP4","OBJECT_TYPE":"PAYLOAD","CENTER_NAME":"EARTH"},{"NORAD_CAT_ID":"47599","ECCENTRICITY":"0.00018780","APOAPSIS":"548.532","COUNTRY_CODE":"US","OBJECT_NAME":"STARLINK-2004","ARG_OF_PERICENTER":"63.5681","DECAY_DATE":null,"MEAN_MOTION_DOT":"0.00000024","MEAN_ANOMALY":"296.5500","RCS_SIZE":"LARGE","REF_FRAME":"TEME","ELEMENT_SET_NO":"999","CLASSIFICATION_TYPE":"U","OBJECT_ID":"2021-009BD","EPHEMERIS_TYPE":"0","RA_OF_ASC_NODE":"185.3595","GP_ID":"208798582","TLE_LINE1":"1 47599U 21009BD  22205.67547304  .00000024  00000-0  20540-4 0  9994","SEMIMAJOR_AXIS":"6925.367","EPOCH":"2022-07-24T16:12:40.870656","BSTAR":"0.00002054000000","LAUNCH_DATE":"2021-02-04","TLE_LINE2":"2 47599  53.0547 185.3595 0001878  63.5681 296.5500 15.06394038 81510","PERIOD":"95.593","INCLINATION":"53.0547","MEAN_MOTION":"15.06394038","PERIAPSIS":"545.931","FILE":"3521124","MEAN_MOTION_DDOT":"0.0000000000000","TIME_SYSTEM":"UTC","SITE":"AFETR","REV_AT_EPOCH":"8151","MEAN_ELEMENT_THEORY":"SGP4","CENTER_NAME":"EARTH","OBJECT_TYPE":"PAYLOAD"},{"SEMIMAJOR_AXIS":"6925.376","TLE_LINE1":"1 47600U 21009BE  22205.63492693  .00000029  00000-0  20822-4 0  9991","GP_ID":"208799325","BSTAR":"0.00002082200000","LAUNCH_DATE":"2021-02-04","EPOCH":"2022-07-24T15:14:17.686752","INCLINATION":"53.0532","MEAN_MOTION":"15.06391021","TLE_LINE2":"2 47600  53.0532 185.5023 0001717  65.9476 294.1692 15.06391021 81510","PERIOD":"95.593","PERIAPSIS":"546.052","MEAN_MOTION_DDOT":"0.0000000000000","FILE":"3521124","TIME_SYSTEM":"UTC","REV_AT_EPOCH":"8151","SITE":"AFETR","CENTER_NAME":"EARTH","OBJECT_TYPE":"PAYLOAD","MEAN_ELEMENT_THEORY":"SGP4","NORAD_CAT_ID":"47600","ECCENTRICITY":"0.00017170","COUNTRY_CODE":"US","APOAPSIS":"548.430","OBJECT_NAME":"STARLINK-2005","DECAY_DATE":null,"ARG_OF_PERICENTER":"65.9476","RCS_SIZE":"LARGE","REF_FRAME":"TEME","MEAN_MOTION_DOT":"0.00000029","MEAN_ANOMALY":"294.1692","OBJECT_ID":"2021-009BE","ELEMENT_SET_NO":"999","CLASSIFICATION_TYPE":"U","RA_OF_ASC_NODE":"185.5023","EPHEMERIS_TYPE":"0"},{"ECCENTRICITY":"0.00016140","NORAD_CAT_ID":"47601","APOAPSIS":"548.390","COUNTRY_CODE":"US","OBJECT_NAME":"STARLINK-2006","ARG_OF_PERICENTER":"54.1419","DECAY_DATE":null,"MEAN_ANOMALY":"305.9720","MEAN_MOTION_DOT":"-0.00001191","REF_FRAME":"TEME","RCS_SIZE":"LARGE","CLASSIFICATION_TYPE":"U","ELEMENT_SET_NO":"999","OBJECT_ID":"2021-009BF","EPHEMERIS_TYPE":"0","RA_OF_ASC_NODE":"184.4526","GP_ID":"208797581","TLE_LINE1":"1 47601U 21009BF  22205.87822101 -.00001191  00000-0 -61104-4 0  9990","SEMIMAJOR_AXIS":"6925.408","EPOCH":"2022-07-24T21:04:38.295264","LAUNCH_DATE":"2021-02-04","BSTAR":"-0.00006110400000","PERIOD":"95.593","TLE_LINE2":"2 47601  53.0543 184.4526 0001614  54.1419 305.9720 15.06380731 81544","INCLINATION":"53.0543","MEAN_MOTION":"15.06380731","PERIAPSIS":"546.155","FILE":"3521124","MEAN_MOTION_DDOT":"0.0000000000000","TIME_SYSTEM":"UTC","SITE":"AFETR","REV_AT_EPOCH":"8154","MEAN_ELEMENT_THEORY":"SGP4","OBJECT_TYPE":"PAYLOAD","CENTER_NAME":"EARTH"},{"OBJECT_ID":"2021-009BG","CLASSIFICATION_TYPE":"U","ELEMENT_SET_NO":"999","RA_OF_ASC_NODE":"195.2484","EPHEMERIS_TYPE":"0","DECAY_DATE":null,"ARG_OF_PERICENTER":"59.7621","REF_FRAME":"TEME","RCS_SIZE":"LARGE","MEAN_ANOMALY":"300.3545","MEAN_MOTION_DOT":"0.00001454","COUNTRY_CODE":"US","APOAPSIS":"548.466","OBJECT_NAME":"STARLINK-2007","ECCENTRICITY":"0.00017860","NORAD_CAT_ID":"47602","REV_AT_EPOCH":"8137","SITE":"AFETR","CENTER_NAME":"EARTH","OBJECT_TYPE":"PAYLOAD","MEAN_ELEMENT_THEORY":"SGP4","MEAN_MOTION_DDOT":"0.0000000000000","FILE":"3521124","TIME_SYSTEM":"UTC","INCLINATION":"53.0540","MEAN_MOTION":"15.06394992","PERIOD":"95.592","TLE_LINE2":"2 47602  53.0540 195.2484 0001786  59.7621 300.3545 15.06394992 81370","PERIAPSIS":"545.992","SEMIMAJOR_AXIS":"6925.364","TLE_LINE1":"1 47602U 21009BG  22205.70035014  .00001454  00000-0  11648-3 0  9999","GP_ID":"208797831","LAUNCH_DATE":"2021-02-04","BSTAR":"0.00011648000000","EPOCH":"2022-07-24T16:48:30.252096"},{"MEAN_MOTION_DOT":"-0.00000634","MEAN_ANOMALY":"299.5919","RCS_SIZE":"LARGE","REF_FRAME":"TEME","ARG_OF_PERICENTER":"60.5230","DECAY_DATE":null,"EPHEMERIS_TYPE":"0","RA_OF_ASC_NODE":"224.8952","ELEMENT_SET_NO":"999","CLASSIFICATION_TYPE":"U","OBJECT_ID":"2021-009BH","NORAD_CAT_ID":"47603","ECCENTRICITY":"0.00016090","OBJECT_NAME":"STARLINK-2008","APOAPSIS":"548.341","COUNTRY_CODE":"US","TIME_SYSTEM":"UTC","FILE":"3521124","MEAN_MOTION_DDOT":"0.0000000000000","MEAN_ELEMENT_THEORY":"SGP4","CENTER_NAME":"EARTH","OBJECT_TYPE":"PAYLOAD","SITE":"AFETR","REV_AT_EPOCH":"8096","EPOCH":"2022-07-24T18:41:17.876832","BSTAR":"-0.00002368000000","LAUNCH_DATE":"2021-02-04","GP_ID":"208799082","SEMIMAJOR_AXIS":"6925.362","TLE_LINE1":"1 47603U 21009BH  22205.77867913 -.00000634  00000-0 -23680-4 0  9999","PERIAPSIS":"546.112","TLE_LINE2":"2 47603  53.0527 224.8952 0001609  60.5230 299.5919 15.06395771 80969","PERIOD":"95.592","MEAN_MOTION":"15.06395771","INCLINATION":"53.0527"},{"COUNTRY_CODE":"US","APOAPSIS":"548.572","OBJECT_NAME":"STARLINK-2021","ECCENTRICITY":"0.00019250","NORAD_CAT_ID":"47604","OBJECT_ID":"2021-009BJ","CLASSIFICATION_TYPE":"U","ELEMENT_SET_NO":"999","RA_OF_ASC_NODE":"195.2053","EPHEMERIS_TYPE":"0","DECAY_DATE":null,"ARG_OF_PERICENTER":"53.3107","REF_FRAME":"TEME","RCS_SIZE":"LARGE","MEAN_ANOMALY":"306.8059","MEAN_MOTION_DOT":"0.00001335","MEAN_MOTION":"15.06391705","INCLINATION":"53.0544","PERIOD":"95.593","TLE_LINE2":"2 47604  53.0544 195.2053 0001925  53.3107 306.8059 15.06391705 81383","PERIAPSIS":"545.906","SEMIMAJOR_AXIS":"6925.374","TLE_LINE1":"1 47604U 21009BJ  22205.70772062  .00001335  00000-0  10855-3 0  9999","GP_ID":"208798826","LAUNCH_DATE":"2021-02-04","BSTAR":"0.00010855000000","EPOCH":"2022-07-24T16:59:07.061568","REV_AT_EPOCH":"8138","SITE":"AFETR","OBJECT_TYPE":"PAYLOAD","CENTER_NAME":"EARTH","MEAN_ELEMENT_THEORY":"SGP4","MEAN_MOTION_DDOT":"0.0000000000000","FILE":"3521124","TIME_SYSTEM":"UTC"}];
